[{"OBJECT_NAME":"COSMOS 2588","OBJECT_ID":"2025-109A","EPOCH":"2026-03-09T19:28:59.107008","MEAN_MOTION":15.29122656,"ECCENTRICITY":0.0005019,"INCLINATION":72.9704,"RA_OF_ASC_NODE":73.5401,"ARG_OF_PERICENTER":308.678,"MEAN_ANOMALY":51.3966,"EPHEMERIS_TYPE":0,"CLASSIFICATION_TYPE":"U","NORAD_CAT_ID":64095,"ELEMENT_SET_NO":999,"REV_AT_EPOCH":4442,"BSTAR":0.00032611,"MEAN_MOTION_DOT":9.169e-5,"MEAN_MOTION_DDOT":0},{"OBJECT_NAME":"STARLINK-35301","OBJECT_ID":"2025-221W","EPOCH":"2026-03-09T11:44:08.110464","MEAN_MOTION":15.30210089,"ECCENTRICITY":0.00013354,"INCLINATION":53.1586,"RA_OF_ASC_NODE":89.2053,"ARG_OF_PERICENTER":75.1291,"MEAN_ANOMALY":284.9857,"EPHEMERIS_TYPE":0,"CLASSIFICATION_TYPE":"U","NORAD_CAT_ID":65843,"ELEMENT_SET_NO":999,"REV_AT_EPOCH":2470,"BSTAR":0.0010716537,"MEAN_MOTION_DOT":0.00031525,"MEAN_MOTION_DDOT":0}]
